{
  "type": "FeatureCollection",
  "features": [
    {
      "type": "Feature",
      "properties": {
        "norad_id": 40376,
        "name": "SMAP",
        "group": "resource",
        "lat": -81.65632726708795,
        "lon": 109.10036470289658,
        "alt_km": 690.5582104472669,
        "timestamp": "2025-12-27T15:27:10.800530+00:00",
        "meta_object_name": "SMAP",
        "meta_object_id": "2015-003A",
        "meta_epoch": "2025-12-27T04:23:06.499104",
        "meta_mean_motion": 14.63363282,
        "meta_eccentricity": 0.00012426,
        "meta_inclination": 98.1291,
        "meta_ra_of_asc_node": 5.6984,
        "meta_arg_of_pericenter": 92.3802,
        "meta_mean_anomaly": 267.7542,
        "meta_ephemeris_type": 0,
        "meta_classification_type": "U",
        "meta_norad_cat_id": 40376,
        "meta_element_set_no": 999,
        "meta_rev_at_epoch": 58246,
        "meta_bstar": 0.0001390557,
        "meta_mean_motion_dot": 6.71e-06,
        "meta_mean_motion_ddot": 0,
        "tle_line1": "1 40376U 15003A   25361.18271411  .00000671  00000+0  13906-3 0  9996",
        "tle_line2": "2 40376  98.1291   5.6984 0001242  92.3802 267.7542 14.63363282582463"
      },
      "geometry": {
        "type": "Point",
        "coordinates": [
          109.10036470289658,
          -81.65632726708795
        ]
      }
    },
    {
      "type": "Feature",
      "properties": {
        "norad_id": 40536,
        "name": "KOMPSAT-3A",
        "group": "resource",
        "lat": -28.391530695363915,
        "lon": -18.996367593997498,
        "alt_km": 440.8998380037574,
        "timestamp": "2025-12-27T15:27:10.800541+00:00",
        "meta_object_name": "KOMPSAT-3A",
        "meta_object_id": "2015-014A",
        "meta_epoch": "2025-12-27T06:14:50.902368",
        "meta_mean_motion": 15.44491497,
        "meta_eccentricity": 0.00056705,
        "meta_inclination": 97.6807,
        "meta_ra_of_asc_node": 336.4152,
        "meta_arg_of_pericenter": 96.3132,
        "meta_mean_anomaly": 263.8761,
        "meta_ephemeris_type": 0,
        "meta_classification_type": "U",
        "meta_norad_cat_id": 40536,
        "meta_element_set_no": 999,
        "meta_rev_at_epoch": 59519,
        "meta_bstar": 0.0004513033,
        "meta_mean_motion_dot": 0.0002086,
        "meta_mean_motion_ddot": 0,
        "tle_line1": "1 40536U 15014A   25361.26031137  .00020860  00000+0  45130-3 0  9990",
        "tle_line2": "2 40536  97.6807 336.4152 0005670  96.3132 263.8761 15.44491497595193"
      },
      "geometry": {
        "type": "Point",
        "coordinates": [
          -18.996367593997498,
          -28.391530695363915
        ]
      }
    },
    {
      "type": "Feature",
      "properties": {
        "norad_id": 40697,
        "name": "SENTINEL-2A",
        "group": "resource",
        "lat": -13.290413871923942,
        "lon": -108.0741059714248,
        "alt_km": 793.7046733612588,
        "timestamp": "2025-12-27T15:27:10.800551+00:00",
        "meta_object_name": "SENTINEL-2A",
        "meta_object_id": "2015-028A",
        "meta_epoch": "2025-12-27T07:50:20.609952",
        "meta_mean_motion": 14.30811758,
        "meta_eccentricity": 0.00010498,
        "meta_inclination": 98.5723,
        "meta_ra_of_asc_node": 73.655,
        "meta_arg_of_pericenter": 89.2258,
        "meta_mean_anomaly": 270.9045,
        "meta_ephemeris_type": 0,
        "meta_classification_type": "U",
        "meta_norad_cat_id": 40697,
        "meta_element_set_no": 999,
        "meta_rev_at_epoch": 54915,
        "meta_bstar": 0.00011398356,
        "meta_mean_motion_dot": 2.55e-06,
        "meta_mean_motion_ddot": 0,
        "tle_line1": "1 40697U 15028A   25361.32662743  .00000255  00000+0  11398-3 0  9998",
        "tle_line2": "2 40697  98.5723  73.6550 0001049  89.2258 270.9045 14.30811758549155"
      },
      "geometry": {
        "type": "Point",
        "coordinates": [
          -108.0741059714248,
          -13.290413871923942
        ]
      }
    },
    {
      "type": "Feature",
      "properties": {
        "norad_id": 40701,
        "name": "GAOFEN-8",
        "group": "resource",
        "lat": -80.76411251963165,
        "lon": -55.68750632242903,
        "alt_km": 464.04341733635647,
        "timestamp": "2025-12-27T15:27:10.800561+00:00",
        "meta_object_name": "GAOFEN-8",
        "meta_object_id": "2015-030A",
        "meta_epoch": "2025-12-27T06:30:15.355584",
        "meta_mean_motion": 15.39083893,
        "meta_eccentricity": 0.00115883,
        "meta_inclination": 97.6904,
        "meta_ra_of_asc_node": 180.1252,
        "meta_arg_of_pericenter": 87.9844,
        "meta_mean_anomaly": 272.2727,
        "meta_ephemeris_type": 0,
        "meta_classification_type": "U",
        "meta_norad_cat_id": 40701,
        "meta_element_set_no": 999,
        "meta_rev_at_epoch": 58494,
        "meta_bstar": 0.00047119834,
        "meta_mean_motion_dot": 0.00018218,
        "meta_mean_motion_ddot": 0,
        "tle_line1": "1 40701U 15030A   25361.27101106  .00018218  00000+0  47120-3 0  9992",
        "tle_line2": "2 40701  97.6904 180.1252 0011588  87.9844 272.2727 15.39083893584949"
      },
      "geometry": {
        "type": "Point",
        "coordinates": [
          -55.68750632242903,
          -80.76411251963165
        ]
      }
    },
    {
      "type": "Feature",
      "properties": {
        "norad_id": 40718,
        "name": "CARBONITE 1 (CBNT-1)",
        "group": "resource",
        "lat": 72.82215516467848,
        "lon": 156.29330661092067,
        "alt_km": 607.9161806190796,
        "timestamp": "2025-12-27T15:27:10.800571+00:00",
        "meta_object_name": "CARBONITE 1 (CBNT-1)",
        "meta_object_id": "2015-032D",
        "meta_epoch": "2025-12-27T07:01:12.362016",
        "meta_mean_motion": 14.82809401,
        "meta_eccentricity": 0.00154678,
        "meta_inclination": 97.6408,
        "meta_ra_of_asc_node": 181.6961,
        "meta_arg_of_pericenter": 134.8707,
        "meta_mean_anomaly": 225.3767,
        "meta_ephemeris_type": 0,
        "meta_classification_type": "U",
        "meta_norad_cat_id": 40718,
        "meta_element_set_no": 999,
        "meta_rev_at_epoch": 56386,
        "meta_bstar": 0.00012090888,
        "meta_mean_motion_dot": 9.29e-06,
        "meta_mean_motion_ddot": 0,
        "tle_line1": "1 40718U 15032D   25361.29250419  .00000929  00000+0  12091-3 0  9995",
        "tle_line2": "2 40718  97.6408 181.6961 0015467 134.8707 225.3767 14.82809401563868"
      },
      "geometry": {
        "type": "Point",
        "coordinates": [
          156.29330661092067,
          72.82215516467848
        ]
      }
    },
    {
      "type": "Feature",
      "properties": {
        "norad_id": 40878,
        "name": "YAOGAN-27",
        "group": "resource",
        "lat": -22.002658213793392,
        "lon": 166.45927595679254,
        "alt_km": 1201.0470109438038,
        "timestamp": "2025-12-27T15:27:10.800582+00:00",
        "meta_object_name": "YAOGAN-27",
        "meta_object_id": "2015-040A",
        "meta_epoch": "2025-12-27T07:07:46.890336",
        "meta_mean_motion": 13.16060247,
        "meta_eccentricity": 0.00075981,
        "meta_inclination": 100.1026,
        "meta_ra_of_asc_node": 350.2592,
        "meta_arg_of_pericenter": 250.7299,
        "meta_mean_anomaly": 109.2993,
        "meta_ephemeris_type": 0,
        "meta_classification_type": "U",
        "meta_norad_cat_id": 40878,
        "meta_element_set_no": 999,
        "meta_rev_at_epoch": 49505,
        "meta_bstar": -0.00069910529,
        "meta_mean_motion_dot": -3.08e-06,
        "meta_mean_motion_ddot": 0,
        "tle_line1": "1 40878U 15040A   25361.29707049 -.00000308  00000+0 -69911-3 0  9993",
        "tle_line2": "2 40878 100.1026 350.2592 0007598 250.7299 109.2993 13.16060247495054"
      },
      "geometry": {
        "type": "Point",
        "coordinates": [
          166.45927595679254,
          -22.002658213793392
        ]
      }
    },
    {
      "type": "Feature",
      "properties": {
        "norad_id": 40894,
        "name": "GAOFEN-9 01",
        "group": "resource",
        "lat": -22.470605149989126,
        "lon": 43.14238946263343,
        "alt_km": 608.1735088670011,
        "timestamp": "2025-12-27T15:27:10.800592+00:00",
        "meta_object_name": "GAOFEN-9 01",
        "meta_object_id": "2015-047A",
        "meta_epoch": "2025-12-27T07:27:17.771040",
        "meta_mean_motion": 14.82458342,
        "meta_eccentricity": 0.00271927,
        "meta_inclination": 97.6524,
        "meta_ra_of_asc_node": 39.6357,
        "meta_arg_of_pericenter": 346.9731,
        "meta_mean_anomaly": 13.0777,
        "meta_ephemeris_type": 0,
        "meta_classification_type": "U",
        "meta_norad_cat_id": 40894,
        "meta_element_set_no": 999,
        "meta_rev_at_epoch": 55472,
        "meta_bstar": 0.00016863031,
        "meta_mean_motion_dot": 1.31e-05,
        "meta_mean_motion_ddot": 0,
        "tle_line1": "1 40894U 15047A   25361.31062235  .00001310  00000+0  16863-3 0  9992",
        "tle_line2": "2 40894  97.6524  39.6357 0027192 346.9731  13.0777 14.82458342554726"
      },
      "geometry": {
        "type": "Point",
        "coordinates": [
          43.14238946263343,
          -22.470605149989126
        ]
      }
    }
  ]
}